[{"OBJECT_NAME":"STARLINK-6337","OBJECT_ID":"2023-065AB","EPOCH":"2026-03-09T10:49:07.296960","MEAN_MOTION":15.02530456,"ECCENTRICITY":0.00021863,"INCLINATION":43.0053,"RA_OF_ASC_NODE":211.2226,"ARG_OF_PERICENTER":283.0999,"MEAN_ANOMALY":76.96,"EPHEMERIS_TYPE":0,"CLASSIFICATION_TYPE":"U","NORAD_CAT_ID":56528,"ELEMENT_SET_NO":999,"REV_AT_EPOCH":15659,"BSTAR":-2.760731e-5,"MEAN_MOTION_DOT":-5.77e-6,"MEAN_MOTION_DDOT":0},{"OBJECT_NAME":"UNKNOWN","OBJECT_ID":"","EPOCH":"2026-03-04T22:11:39.610464","MEAN_MOTION":14.49090755,"ECCENTRICITY":0.0282259,"INCLINATION":82.0644,"RA_OF_ASC_NODE":144.6703,"ARG_OF_PERICENTER":28.1067,"MEAN_ANOMALY":333.504,"EPHEMERIS_TYPE":0,"CLASSIFICATION_TYPE":"U","NORAD_CAT_ID":89172,"ELEMENT_SET_NO":999,"REV_AT_EPOCH":61378,"BSTAR":0.001137,"MEAN_MOTION_DOT":7.23e-5,"MEAN_MOTION_DDOT":0}]
